API VERSION: 1.2
API SOURCE: NASA/JPL Horizons API

*******************************************************************************
 Revised: April 12, 2021               Jupiter                              599
 
 PHYSICAL DATA (revised 2025-Jan-30):
  Mass x 10^26 (kg)     = 18.9819           Density (g/cm^3)  = 1.3262 +- .0003
  Equat. radius (1 bar) = 71492+-4 km       Polar radius (km)     = 66854+-10
  Vol. Mean Radius (km) = 69911+-6          Flattening            = 0.06487
  Geometric Albedo      = 0.52              Rocky core mass (Mc/M)= 0.0261
  Sid. rot. period (III)= 9h 55m 29.711 s   Sid. rot. rate (rad/s)= 0.00017585
  Mean solar day, hrs   = ~9.9259         
  GM (km^3/s^2)         = 126686531.900     GM 1-sigma (km^3/s^2) =  +- 1.2732
  Equ. grav, ge (m/s^2) = 24.79             Pol. grav, gp (m/s^2) =  28.34
  Vis. magnitude V(1,0) = -9.40
  Vis. mag. (opposition)= -2.70             Obliquity to orbit    =  3.13 deg
  Sidereal orbit period = 11.861982204 y    Sidereal orbit period = 4332.589 d
  Mean daily motion     = 0.0831294 deg/d   Mean orbit speed, km/s= 13.0697
  Atmos. temp. (1 bar)  = 165+-5 K          Escape speed, km/s    =  59.5           
  A_roche(ice)/Rp       =  2.76             Hill's sphere rad. Rp = 740
                                 Perihelion   Aphelion     Mean
  Solar Constant (W/m^2)         56           46           51
  Maximum Planetary IR (W/m^2)   13.7         13.4         13.6
  Minimum Planetary IR (W/m^2)   13.7         13.4         13.6
*******************************************************************************


*******************************************************************************
Ephemeris / API_USER Sun May  4 12:01:45 2025 Pasadena, USA      / Horizons    
*******************************************************************************
Target body name: Jupiter (599)                   {source: jup365_merged}
Center body name: Earth (399)                     {source: DE441}
Center-site name: GEOCENTRIC
*******************************************************************************
Start time      : A.D. 2015-Jan-01 00:00:00.0000 UT      
Stop  time      : A.D. 2025-Jan-01 00:00:00.0000 UT      
Step-size       : 1440 minutes
*******************************************************************************
Target pole/equ : IAU_JUPITER                     {West-longitude positive}
Target radii    : 71492.0, 71492.0, 66854.0 km    {Equator_a, b, pole_c}       
Center geodetic : 0.0, 0.0, -6378.137             {E-lon(deg),Lat(deg),Alt(km)}
Center cylindric: 0.0, 0.0, 0.0                   {E-lon(deg),Dxy(km),Dz(km)}
Center pole/equ : ITRF93                          {East-longitude positive}
Center radii    : 6378.137, 6378.137, 6356.752 km {Equator_a, b, pole_c}       
Target primary  : Sun
Vis. interferer : MOON (R_eq= 1737.400) km        {source: DE441}
Rel. light bend : Sun                             {source: jup365_merged}
Rel. lght bnd GM: 1.3271E+11 km^3/s^2                                          
Atmos refraction: NO (AIRLESS)
RA format       : HMS
Time format     : CAL 
Calendar mode   : Mixed Julian/Gregorian
EOP file        : eop.250502.p250729                                           
EOP coverage    : DATA-BASED 1962-JAN-20 TO 2025-MAY-02. PREDICTS-> 2025-JUL-28
Units conversion: 1 au= 149597870.700 km, c= 299792.458 km/s, 1 day= 86400.0 s 
Table cut-offs 1: Elevation (-90.0deg=NO ),Airmass (>38.000=NO), Daylight (NO )
Table cut-offs 2: Solar elongation (  0.0,180.0=NO ),Local Hour Angle( 0.0=NO )
Table cut-offs 3: RA/DEC angular rate (     0.0=NO )                           
*******************************************************************************
 Date__(UT)__HR:MN     R.A._____(ICRF)_____DEC
**********************************************
$$SOE
 2018-Aug-03 00:00     14 46 55.42 -15 05 22.4
 2018-Aug-04 00:00     14 47 11.52 -15 06 50.3
 2018-Aug-05 00:00     14 47 28.26 -15 08 21.0
 2018-Aug-06 00:00     14 47 45.65 -15 09 54.4
 2018-Aug-07 00:00     14 48 03.68 -15 11 30.4
 2018-Aug-08 00:00     14 48 22.34 -15 13 09.1
 2018-Aug-09 00:00     14 48 41.64 -15 14 50.4
 2018-Aug-10 00:00     14 49 01.56 -15 16 34.3
 2018-Aug-11 00:00     14 49 22.10 -15 18 20.7
 2018-Aug-12 00:00     14 49 43.26 -15 20 09.6
 2018-Aug-13 00:00     14 50 05.04 -15 22 00.9
 2018-Aug-14 00:00     14 50 27.42 -15 23 54.8
 2018-Aug-15 00:00     14 50 50.40 -15 25 51.0
 2018-Aug-16 00:00     14 51 13.99 -15 27 49.5
 2018-Aug-17 00:00     14 51 38.15 -15 29 50.4
 2018-Aug-18 00:00     14 52 02.91 -15 31 53.5
 2018-Aug-19 00:00     14 52 28.24 -15 33 58.8
 2018-Aug-20 00:00     14 52 54.13 -15 36 06.3
 2018-Aug-21 00:00     14 53 20.60 -15 38 16.0
 2018-Aug-22 00:00     14 53 47.63 -15 40 27.7
 2018-Aug-23 00:00     14 54 15.20 -15 42 41.5
 2018-Aug-24 00:00     14 54 43.33 -15 44 57.3
 2018-Aug-25 00:00     14 55 12.00 -15 47 15.0
 2018-Aug-26 00:00     14 55 41.20 -15 49 34.7
 2018-Aug-27 00:00     14 56 10.93 -15 51 56.2
 2018-Aug-28 00:00     14 56 41.19 -15 54 19.5
 2018-Aug-29 00:00     14 57 11.97 -15 56 44.7
 2018-Aug-30 00:00     14 57 43.27 -15 59 11.6
 2018-Aug-31 00:00     14 58 15.07 -16 01 40.2
 2018-Sep-01 00:00     14 58 47.39 -16 04 10.5
 2018-Sep-02 00:00     14 59 20.20 -16 06 42.4
 2018-Sep-03 00:00     14 59 53.51 -16 09 15.9
 2018-Sep-04 00:00     15 00 27.31 -16 11 51.0
 2018-Sep-05 00:00     15 01 01.61 -16 14 27.6
 2018-Sep-06 00:00     15 01 36.38 -16 17 05.8
 2018-Sep-07 00:00     15 02 11.64 -16 19 45.3
 2018-Sep-08 00:00     15 02 47.36 -16 22 26.3
 2018-Sep-09 00:00     15 03 23.56 -16 25 08.6
 2018-Sep-10 00:00     15 04 00.21 -16 27 52.2
 2018-Sep-11 00:00     15 04 37.33 -16 30 37.2
 2018-Sep-12 00:00     15 05 14.89 -16 33 23.4
 2018-Sep-13 00:00     15 05 52.89 -16 36 10.8
 2018-Sep-14 00:00     15 06 31.34 -16 38 59.3
 2018-Sep-15 00:00     15 07 10.21 -16 41 49.0
 2018-Sep-16 00:00     15 07 49.51 -16 44 39.7
 2018-Sep-17 00:00     15 08 29.22 -16 47 31.4
 2018-Sep-18 00:00     15 09 09.35 -16 50 24.1
 2018-Sep-19 00:00     15 09 49.89 -16 53 17.7
 2018-Sep-20 00:00     15 10 30.83 -16 56 12.2
 2018-Sep-21 00:00     15 11 12.16 -16 59 07.6
 2018-Sep-22 00:00     15 11 53.88 -17 02 03.8
 2018-Sep-23 00:00     15 12 35.99 -17 05 00.8
 2018-Sep-24 00:00     15 13 18.48 -17 07 58.4
 2018-Sep-25 00:00     15 14 01.34 -17 10 56.8
 2018-Sep-26 00:00     15 14 44.57 -17 13 55.8
 2018-Sep-27 00:00     15 15 28.17 -17 16 55.5
 2018-Sep-28 00:00     15 16 12.12 -17 19 55.7
 2018-Sep-29 00:00     15 16 56.43 -17 22 56.4
 2018-Sep-30 00:00     15 17 41.10 -17 25 57.7
 2018-Oct-01 00:00     15 18 26.10 -17 28 59.4
 2018-Oct-02 00:00     15 19 11.45 -17 32 01.5
 2018-Oct-03 00:00     15 19 57.14 -17 35 04.1
 2018-Oct-04 00:00     15 20 43.17 -17 38 07.1
 2018-Oct-05 00:00     15 21 29.52 -17 41 10.3
 2018-Oct-06 00:00     15 22 16.19 -17 44 13.9
 2018-Oct-07 00:00     15 23 03.19 -17 47 17.7
 2018-Oct-08 00:00     15 23 50.49 -17 50 21.8
 2018-Oct-09 00:00     15 24 38.10 -17 53 26.1
 2018-Oct-10 00:00     15 25 26.02 -17 56 30.5
 2018-Oct-11 00:00     15 26 14.23 -17 59 35.0
 2018-Oct-12 00:00     15 27 02.73 -18 02 39.6
 2018-Oct-13 00:00     15 27 51.51 -18 05 44.2
 2018-Oct-14 00:00     15 28 40.57 -18 08 48.9
 2018-Oct-15 00:00     15 29 29.90 -18 11 53.5
 2018-Oct-16 00:00     15 30 19.50 -18 14 58.0
 2018-Oct-17 00:00     15 31 09.35 -18 18 02.4
 2018-Oct-18 00:00     15 31 59.46 -18 21 06.6
 2018-Oct-19 00:00     15 32 49.82 -18 24 10.7
 2018-Oct-20 00:00     15 33 40.43 -18 27 14.6
 2018-Oct-21 00:00     15 34 31.27 -18 30 18.2
 2018-Oct-22 00:00     15 35 22.34 -18 33 21.5
 2018-Oct-23 00:00     15 36 13.64 -18 36 24.5
 2018-Oct-24 00:00     15 37 05.17 -18 39 27.2
 2018-Oct-25 00:00     15 37 56.91 -18 42 29.5
 2018-Oct-26 00:00     15 38 48.87 -18 45 31.3
 2018-Oct-27 00:00     15 39 41.05 -18 48 32.8
 2018-Oct-28 00:00     15 40 33.42 -18 51 33.8
 2018-Oct-29 00:00     15 41 26.00 -18 54 34.3
 2018-Oct-30 00:00     15 42 18.77 -18 57 34.3
 2018-Oct-31 00:00     15 43 11.74 -19 00 33.8
 2018-Nov-01 00:00     15 44 04.90 -19 03 32.7
 2018-Nov-02 00:00     15 44 58.23 -19 06 31.0
 2018-Nov-03 00:00     15 45 51.75 -19 09 28.7
 2018-Nov-04 00:00     15 46 45.44 -19 12 25.7
 2018-Nov-05 00:00     15 47 39.29 -19 15 22.1
 2018-Nov-06 00:00     15 48 33.30 -19 18 17.8
 2018-Nov-07 00:00     15 49 27.47 -19 21 12.7
 2018-Nov-08 00:00     15 50 21.79 -19 24 06.9
 2018-Nov-09 00:00     15 51 16.25 -19 27 00.3
 2018-Nov-10 00:00     15 52 10.85 -19 29 52.9
 2018-Nov-11 00:00     15 53 05.57 -19 32 44.6
 2018-Nov-12 00:00     15 54 00.43 -19 35 35.5
 2018-Nov-13 00:00     15 54 55.39 -19 38 25.4
 2018-Nov-14 00:00     15 55 50.48 -19 41 14.5
 2018-Nov-15 00:00     15 56 45.66 -19 44 02.6
 2018-Nov-16 00:00     15 57 40.95 -19 46 49.7
 2018-Nov-17 00:00     15 58 36.34 -19 49 35.8
 2018-Nov-18 00:00     15 59 31.81 -19 52 20.8
 2018-Nov-19 00:00     16 00 27.37 -19 55 04.9
 2018-Nov-20 00:00     16 01 23.01 -19 57 47.8
 2018-Nov-21 00:00     16 02 18.72 -20 00 29.7
 2018-Nov-22 00:00     16 03 14.50 -20 03 10.5
 2018-Nov-23 00:00     16 04 10.34 -20 05 50.1
 2018-Nov-24 00:00     16 05 06.24 -20 08 28.6
 2018-Nov-25 00:00     16 06 02.20 -20 11 06.0
 2018-Nov-26 00:00     16 06 58.21 -20 13 42.1
 2018-Nov-27 00:00     16 07 54.26 -20 16 17.1
 2018-Nov-28 00:00     16 08 50.35 -20 18 50.9
 2018-Nov-29 00:00     16 09 46.47 -20 21 23.4
 2018-Nov-30 00:00     16 10 42.63 -20 23 54.8
 2018-Dec-01 00:00     16 11 38.81 -20 26 24.8
 2018-Dec-02 00:00     16 12 35.00 -20 28 53.6
 2018-Dec-03 00:00     16 13 31.21 -20 31 21.1
 2018-Dec-04 00:00     16 14 27.42 -20 33 47.4
 2018-Dec-05 00:00     16 15 23.63 -20 36 12.2
 2018-Dec-06 00:00     16 16 19.82 -20 38 35.8
 2018-Dec-07 00:00     16 17 16.01 -20 40 58.0
 2018-Dec-08 00:00     16 18 12.17 -20 43 18.8
 2018-Dec-09 00:00     16 19 08.30 -20 45 38.3
 2018-Dec-10 00:00     16 20 04.40 -20 47 56.3
 2018-Dec-11 00:00     16 21 00.45 -20 50 12.9
